{
  "links" : {
    "next" : "https://api.nasa.gov/neo/rest/v1/feed?start_date=2002-02-23&end_date=2002-02-23&detailed=true&api_key=t0TVs3DtDT2H8Oy2Zy8m2eVrNsAVKAexjcZXUckd",
    "prev" : "https://api.nasa.gov/neo/rest/v1/feed?start_date=2002-02-21&end_date=2002-02-21&detailed=true&api_key=t0TVs3DtDT2H8Oy2Zy8m2eVrNsAVKAexjcZXUckd",
    "self" : "https://api.nasa.gov/neo/rest/v1/feed?start_date=2002-02-22&end_date=2002-02-22&detailed=true&api_key=t0TVs3DtDT2H8Oy2Zy8m2eVrNsAVKAexjcZXUckd"
  },
  "element_count" : 4,
  "near_earth_objects" : {
    "2002-02-22" : [ {
      "links" : {
        "self" : "https://api.nasa.gov/neo/rest/v1/neo/3114037?api_key=t0TVs3DtDT2H8Oy2Zy8m2eVrNsAVKAexjcZXUckd"
      },
      "neo_reference_id" : "3114037",
      "name" : "(2002 CT46)",
      "nasa_jpl_url" : "http://ssd.jpl.nasa.gov/sbdb.cgi?sstr=3114037",
      "absolute_magnitude_h" : 20.8,
      "estimated_diameter" : {
        "kilometers" : {
          "estimated_diameter_min" : 0.1838886721,
          "estimated_diameter_max" : 0.411187571
        },
        "meters" : {
          "estimated_diameter_min" : 183.8886720703,
          "estimated_diameter_max" : 411.1875710413
        },
        "miles" : {
          "estimated_diameter_min" : 0.1142630881,
          "estimated_diameter_max" : 0.2555000322
        },
        "feet" : {
          "estimated_diameter_min" : 603.309310875,
          "estimated_diameter_max" : 1349.040630575
        }
      },
      "is_potentially_hazardous_asteroid" : false,
      "close_approach_data" : [ {
        "close_approach_date" : "2002-02-22",
        "epoch_date_close_approach" : 1014364800000,
        "relative_velocity" : {
          "kilometers_per_second" : "10.2461294919",
          "kilometers_per_hour" : "36886.0661709844",
          "miles_per_hour" : "22919.5670605208"
        },
        "miss_distance" : {
          "astronomical" : "0.1290270118",
          "lunar" : "50.1915054321",
          "kilometers" : "19302166",
          "miles" : "11993810"
        },
        "orbiting_body" : "Earth"
      } ],
      "orbital_data" : {
        "orbit_id" : "31",
        "orbit_determination_date" : "2017-04-06 09:15:26",
        "orbit_uncertainty" : "5",
        "minimum_orbit_intersection" : ".124748",
        "jupiter_tisserand_invariant" : "3.302",
        "epoch_osculation" : "2458000.5",
        "eccentricity" : ".529295243060959",
        "semi_major_axis" : "2.363646801089942",
        "inclination" : "15.71068627549974",
        "ascending_node_longitude" : "157.4060466107483",
        "orbital_period" : "1327.309790197096",
        "perihelion_distance" : "1.112579792996783",
        "perihelion_argument" : "356.2442779362574",
        "aphelion_distance" : "3.614713809183101",
        "perihelion_time" : "2457630.155112276326",
        "mean_anomaly" : "100.4469043814744",
        "mean_motion" : ".2712253029841228",
        "equinox" : "J2000"
      }
    }, {
      "links" : {
        "self" : "https://api.nasa.gov/neo/rest/v1/neo/3404494?api_key=t0TVs3DtDT2H8Oy2Zy8m2eVrNsAVKAexjcZXUckd"
      },
      "neo_reference_id" : "3404494",
      "name" : "(2008 DY22)",
      "nasa_jpl_url" : "http://ssd.jpl.nasa.gov/sbdb.cgi?sstr=3404494",
      "absolute_magnitude_h" : 24.2,
      "estimated_diameter" : {
        "kilometers" : {
          "estimated_diameter_min" : 0.0384197891,
          "estimated_diameter_max" : 0.0859092601
        },
        "meters" : {
          "estimated_diameter_min" : 38.4197891064,
          "estimated_diameter_max" : 85.9092601232
        },
        "miles" : {
          "estimated_diameter_min" : 0.0238729428,
          "estimated_diameter_max" : 0.0533815229
        },
        "feet" : {
          "estimated_diameter_min" : 126.0491808919,
          "estimated_diameter_max" : 281.8545369825
        }
      },
      "is_potentially_hazardous_asteroid" : false,
      "close_approach_data" : [ {
        "close_approach_date" : "2002-02-22",
        "epoch_date_close_approach" : 1014364800000,
        "relative_velocity" : {
          "kilometers_per_second" : "13.2379198073",
          "kilometers_per_hour" : "47656.5113061994",
          "miles_per_hour" : "29611.9028168993"
        },
        "miss_distance" : {
          "astronomical" : "0.2419532542",
          "lunar" : "94.1198120117",
          "kilometers" : "36195692",
          "miles" : "22490960"
        },
        "orbiting_body" : "Earth"
      } ],
      "orbital_data" : {
        "orbit_id" : "8",
        "orbit_determination_date" : "2017-04-06 09:04:13",
        "orbit_uncertainty" : "7",
        "minimum_orbit_intersection" : ".0167652",
        "jupiter_tisserand_invariant" : "7.072",
        "epoch_osculation" : "2458000.5",
        "eccentricity" : ".2266972491165049",
        "semi_major_axis" : ".820587651728144",
        "inclination" : "19.1602708720139",
        "ascending_node_longitude" : "342.5796511691266",
        "orbital_period" : "271.5100395088535",
        "perihelion_distance" : ".6345626884224012",
        "perihelion_argument" : ".4588367303851765",
        "aphelion_distance" : "1.006612615033887",
        "perihelion_time" : "2457923.391714768520",
        "mean_anomaly" : "102.2392495450527",
        "mean_motion" : "1.325917821128161",
        "equinox" : "J2000"
      }
    }, {
      "links" : {
        "self" : "https://api.nasa.gov/neo/rest/v1/neo/3684008?api_key=t0TVs3DtDT2H8Oy2Zy8m2eVrNsAVKAexjcZXUckd"
      },
      "neo_reference_id" : "3684008",
      "name" : "(2014 QT296)",
      "nasa_jpl_url" : "http://ssd.jpl.nasa.gov/sbdb.cgi?sstr=3684008",
      "absolute_magnitude_h" : 21.2,
      "estimated_diameter" : {
        "kilometers" : {
          "estimated_diameter_min" : 0.1529519353,
          "estimated_diameter_max" : 0.3420109247
        },
        "meters" : {
          "estimated_diameter_min" : 152.9519353442,
          "estimated_diameter_max" : 342.0109247198
        },
        "miles" : {
          "estimated_diameter_min" : 0.095039897,
          "estimated_diameter_max" : 0.2125156703
        },
        "feet" : {
          "estimated_diameter_min" : 501.8108275547,
          "estimated_diameter_max" : 1122.0831222578
        }
      },
      "is_potentially_hazardous_asteroid" : false,
      "close_approach_data" : [ {
        "close_approach_date" : "2002-02-22",
        "epoch_date_close_approach" : 1014364800000,
        "relative_velocity" : {
          "kilometers_per_second" : "26.3259464942",
          "kilometers_per_hour" : "94773.4073791495",
          "miles_per_hour" : "58888.5097128943"
        },
        "miss_distance" : {
          "astronomical" : "0.4040564537",
          "lunar" : "157.1779632568",
          "kilometers" : "60445988",
          "miles" : "37559396"
        },
        "orbiting_body" : "Earth"
      } ],
      "orbital_data" : {
        "orbit_id" : "6",
        "orbit_determination_date" : "2017-04-06 08:39:07",
        "orbit_uncertainty" : "6",
        "minimum_orbit_intersection" : ".0667857",
        "jupiter_tisserand_invariant" : "4.469",
        "epoch_osculation" : "2458000.5",
        "eccentricity" : ".4373989530511649",
        "semi_major_axis" : "1.442414905197316",
        "inclination" : "24.56842188077443",
        "ascending_node_longitude" : "151.7319137192872",
        "orbital_period" : "632.7522951838971",
        "perihelion_distance" : ".8115041357986146",
        "perihelion_argument" : "97.07781956847643",
        "aphelion_distance" : "2.073325674596017",
        "perihelion_time" : "2458075.090407064433",
        "mean_anomaly" : "317.5623087461238",
        "mean_motion" : ".5689430172598158",
        "equinox" : "J2000"
      }
    }, {
      "links" : {
        "self" : "https://api.nasa.gov/neo/rest/v1/neo/3768016?api_key=t0TVs3DtDT2H8Oy2Zy8m2eVrNsAVKAexjcZXUckd"
      },
      "neo_reference_id" : "3768016",
      "name" : "(2017 BY93)",
      "nasa_jpl_url" : "http://ssd.jpl.nasa.gov/sbdb.cgi?sstr=3768016",
      "absolute_magnitude_h" : 23.1,
      "estimated_diameter" : {
        "kilometers" : {
          "estimated_diameter_min" : 0.063760979,
          "estimated_diameter_max" : 0.1425738833
        },
        "meters" : {
          "estimated_diameter_min" : 63.7609789875,
          "estimated_diameter_max" : 142.5738833281
        },
        "miles" : {
          "estimated_diameter_min" : 0.0396192233,
          "estimated_diameter_max" : 0.0885912765
        },
        "feet" : {
          "estimated_diameter_min" : 209.1895703015,
          "estimated_diameter_max" : 467.7620993781
        }
      },
      "is_potentially_hazardous_asteroid" : false,
      "close_approach_data" : [ {
        "close_approach_date" : "2002-02-22",
        "epoch_date_close_approach" : 1014364800000,
        "relative_velocity" : {
          "kilometers_per_second" : "9.7721484596",
          "kilometers_per_hour" : "35179.7344543835",
          "miles_per_hour" : "21859.3188891695"
        },
        "miss_distance" : {
          "astronomical" : "0.461533391",
          "lunar" : "179.5364990234",
          "kilometers" : "69044416",
          "miles" : "42902208"
        },
        "orbiting_body" : "Earth"
      } ],
      "orbital_data" : {
        "orbit_id" : "29",
        "orbit_determination_date" : "2017-06-02 06:17:28",
        "orbit_uncertainty" : "3",
        "minimum_orbit_intersection" : ".000436928",
        "jupiter_tisserand_invariant" : "4.809",
        "epoch_osculation" : "2458000.5",
        "eccentricity" : ".5862273512834647",
        "semi_major_axis" : "1.300419544775263",
        "inclination" : "4.373603626605576",
        "ascending_node_longitude" : "155.9915269052871",
        "orbital_period" : "541.6561257592202",
        "perihelion_distance" : ".5380780394844118",
        "perihelion_argument" : "103.1002352402634",
        "aphelion_distance" : "2.062761050066115",
        "perihelion_time" : "2457861.406234502426",
        "mean_anomaly" : "92.44565545887637",
        "mean_motion" : ".6646283183733974",
        "equinox" : "J2000"
      }
    } ]
  }
}